start=new Date('2021-12-04T00:00:00.000Z').valueOf();
sats=[{"MEAN_MOTION":"15.73195629","ECCENTRICITY":"0.00020140","BSTAR":"0.00036945000000","FILE":"3231884","RCS_SIZE":"LARGE","MEAN_MOTION_DOT":"0.00051540","LAUNCH_DATE":"2021-11-13","PERIAPSIS":"348.418","APOAPSIS":"351.128","CLASSIFICATION_TYPE":"U","TLE_LINE1":"1 49433U 21104AB  21338.00002315  .00051540  00000-0  36945-3 0  9994","DECAY_DATE":null,"REV_AT_EPOCH":"450","ARG_OF_PERICENTER":"31.6110","RA_OF_ASC_NODE":"31.7238","EPOCH":"2021-12-04T00:00:02.000160","SITE":"AFETR","MEAN_ANOMALY":"334.2622","NORAD_CAT_ID":"49433","OBJECT_ID":"2021-104AB","CENTER_NAME":"EARTH","ELEMENT_SET_NO":"999","REF_FRAME":"TEME","MEAN_MOTION_DDOT":"0.0000000000000","INCLINATION":"53.2186","OBJECT_TYPE":"PAYLOAD","SEMIMAJOR_AXIS":"6727.908","GP_ID":"191016400","TLE_LINE2":"2 49433  53.2186  31.7238 0002014  31.6110 334.2622 15.73195629  4502","COUNTRY_CODE":"US","OBJECT_NAME":"STARLINK-3079","EPHEMERIS_TYPE":"0","TIME_SYSTEM":"UTC","PERIOD":"91.533","MEAN_ELEMENT_THEORY":"SGP4"},{"PERIAPSIS":"348.697","LAUNCH_DATE":"2021-11-13","MEAN_MOTION_DOT":"0.00023650","RCS_SIZE":"LARGE","APOAPSIS":"351.048","CLASSIFICATION_TYPE":"U","BSTAR":"0.00017274000000","FILE":"3231910","ECCENTRICITY":"0.00017470","MEAN_MOTION":"15.73160576","CENTER_NAME":"EARTH","ELEMENT_SET_NO":"999","MEAN_ANOMALY":"221.0023","NORAD_CAT_ID":"49434","SITE":"AFETR","OBJECT_ID":"2021-104AC","RA_OF_ASC_NODE":"32.1432","EPOCH":"2021-12-03T22:00:00.999936","ARG_OF_PERICENTER":"28.8265","TLE_LINE1":"1 49434U 21104AC  21337.91667824  .00023650  00000-0  17274-3 0  9991","REV_AT_EPOCH":"371","DECAY_DATE":null,"SEMIMAJOR_AXIS":"6728.008","OBJECT_TYPE":"PAYLOAD","INCLINATION":"53.2187","REF_FRAME":"TEME","MEAN_MOTION_DDOT":"0.0000000000000","MEAN_ELEMENT_THEORY":"SGP4","TIME_SYSTEM":"UTC","PERIOD":"91.535","COUNTRY_CODE":"US","EPHEMERIS_TYPE":"0","OBJECT_NAME":"STARLINK-3134","GP_ID":"191040675","TLE_LINE2":"2 49434  53.2187  32.1432 0001747  28.8265 221.0023 15.73160576  3719"},{"GP_ID":"191016293","TLE_LINE2":"2 49435  53.2182  31.6995 0001424  35.6849 342.2388 15.73109254  4503","COUNTRY_CODE":"US","OBJECT_NAME":"STARLINK-3117","EPHEMERIS_TYPE":"0","TIME_SYSTEM":"UTC","PERIOD":"91.538","MEAN_ELEMENT_THEORY":"SGP4","REF_FRAME":"TEME","MEAN_MOTION_DDOT":"0.0000000000000","OBJECT_TYPE":"PAYLOAD","INCLINATION":"53.2182","SEMIMAJOR_AXIS":"6728.154","TLE_LINE1":"1 49435U 21104AD  21338.00002315  .00082373  00000-0  58786-3 0  9991","DECAY_DATE":null,"REV_AT_EPOCH":"450","ARG_OF_PERICENTER":"35.6849","RA_OF_ASC_NODE":"31.6995","EPOCH":"2021-12-04T00:00:02.000160","SITE":"AFETR","NORAD_CAT_ID":"49435","MEAN_ANOMALY":"342.2388","OBJECT_ID":"2021-104AD","CENTER_NAME":"EARTH","ELEMENT_SET_NO":"999","MEAN_MOTION":"15.73109254","ECCENTRICITY":"0.00014240","BSTAR":"0.00058786000000","FILE":"3231887","RCS_SIZE":"LARGE","LAUNCH_DATE":"2021-11-13","PERIAPSIS":"349.061","MEAN_MOTION_DOT":"0.00082373","APOAPSIS":"350.977","CLASSIFICATION_TYPE":"U"},{"MEAN_MOTION_DDOT":"0.0000000000000","REF_FRAME":"TEME","SEMIMAJOR_AXIS":"6728.164","OBJECT_TYPE":"PAYLOAD","INCLINATION":"53.2189","EPHEMERIS_TYPE":"0","OBJECT_NAME":"STARLINK-3049","COUNTRY_CODE":"US","TLE_LINE2":"2 49436  53.2189  31.7265 0001629  29.0909 335.7292 15.73105751  4490","GP_ID":"191016295","MEAN_ELEMENT_THEORY":"SGP4","TIME_SYSTEM":"UTC","PERIOD":"91.539","ECCENTRICITY":"0.00016290","MEAN_MOTION":"15.73105751","CLASSIFICATION_TYPE":"U","APOAPSIS":"351.125","LAUNCH_DATE":"2021-11-13","MEAN_MOTION_DOT":"0.00101217","PERIAPSIS":"348.933","RCS_SIZE":"LARGE","FILE":"3231887","BSTAR":"0.00071982000000","EPOCH":"2021-12-04T00:00:02.000160","RA_OF_ASC_NODE":"31.7265","ARG_OF_PERICENTER":"29.0909","REV_AT_EPOCH":"449","DECAY_DATE":null,"TLE_LINE1":"1 49436U 21104AE  21338.00002315  .00101217  00000-0  71982-3 0  9994","ELEMENT_SET_NO":"999","CENTER_NAME":"EARTH","OBJECT_ID":"2021-104AE","NORAD_CAT_ID":"49436","MEAN_ANOMALY":"335.7292","SITE":"AFETR"},{"ECCENTRICITY":"0.00019180","MEAN_MOTION":"15.73159528","APOAPSIS":"351.166","CLASSIFICATION_TYPE":"U","RCS_SIZE":"LARGE","LAUNCH_DATE":"2021-11-13","MEAN_MOTION_DOT":"0.00069719","PERIAPSIS":"348.585","FILE":"3231893","BSTAR":"0.00049790000000","ARG_OF_PERICENTER":"32.7538","EPOCH":"2021-12-04T00:00:02.000160","RA_OF_ASC_NODE":"31.7194","DECAY_DATE":null,"REV_AT_EPOCH":"449","TLE_LINE1":"1 49437U 21104AF  21338.00002315  .00069719  00000-0  49790-3 0  9997","ELEMENT_SET_NO":"999","CENTER_NAME":"EARTH","OBJECT_ID":"2021-104AF","SITE":"AFETR","MEAN_ANOMALY":"334.9973","NORAD_CAT_ID":"49437","MEAN_MOTION_DDOT":"0.0000000000000","REF_FRAME":"TEME","SEMIMAJOR_AXIS":"6728.011","INCLINATION":"53.2185","OBJECT_TYPE":"PAYLOAD","OBJECT_NAME":"STARLINK-3130","EPHEMERIS_TYPE":"0","COUNTRY_CODE":"US","TLE_LINE2":"2 49437  53.2185  31.7194 0001918  32.7538 334.9973 15.73159528  4496","GP_ID":"191016506","MEAN_ELEMENT_THEORY":"SGP4","TIME_SYSTEM":"UTC","PERIOD":"91.536"},{"OBJECT_NAME":"STARLINK-3044","EPHEMERIS_TYPE":"0","COUNTRY_CODE":"US","TLE_LINE2":"2 49438  53.2183  31.7163 0001691  28.6210 340.0770 15.73171866  4492","GP_ID":"191016682","MEAN_ELEMENT_THEORY":"SGP4","TIME_SYSTEM":"UTC","PERIOD":"91.535","MEAN_MOTION_DDOT":"0.0000000000000","REF_FRAME":"TEME","SEMIMAJOR_AXIS":"6727.975","INCLINATION":"53.2183","OBJECT_TYPE":"PAYLOAD","ARG_OF_PERICENTER":"28.6210","RA_OF_ASC_NODE":"31.7163","EPOCH":"2021-12-04T00:00:02.000160","DECAY_DATE":null,"REV_AT_EPOCH":"449","TLE_LINE1":"1 49438U 21104AG  21338.00002315  .00069304  00000-0  49473-3 0  9996","ELEMENT_SET_NO":"999","CENTER_NAME":"EARTH","OBJECT_ID":"2021-104AG","SITE":"AFETR","NORAD_CAT_ID":"49438","MEAN_ANOMALY":"340.0770","ECCENTRICITY":"0.00016910","MEAN_MOTION":"15.73171866","CLASSIFICATION_TYPE":"U","APOAPSIS":"350.978","RCS_SIZE":"LARGE","LAUNCH_DATE":"2021-11-13","PERIAPSIS":"348.703","MEAN_MOTION_DOT":"0.00069304","FILE":"3231897","BSTAR":"0.00049473000000"},{"GP_ID":"191040831","TLE_LINE2":"2 49439  53.2187  32.1212 0001628 354.8825 266.1355 15.73196255  3713","COUNTRY_CODE":"US","OBJECT_NAME":"STARLINK-3108","EPHEMERIS_TYPE":"0","PERIOD":"91.533","TIME_SYSTEM":"UTC","MEAN_ELEMENT_THEORY":"SGP4","REF_FRAME":"TEME","MEAN_MOTION_DDOT":"0.0000000000000","OBJECT_TYPE":"PAYLOAD","INCLINATION":"53.2187","SEMIMAJOR_AXIS":"6727.906","TLE_LINE1":"1 49439U 21104AH  21337.91667824  .00022836  00000-0  16671-3 0  9991","DECAY_DATE":null,"REV_AT_EPOCH":"371","ARG_OF_PERICENTER":"354.8825","EPOCH":"2021-12-03T22:00:00.999936","RA_OF_ASC_NODE":"32.1212","SITE":"AFETR","NORAD_CAT_ID":"49439","MEAN_ANOMALY":"266.1355","OBJECT_ID":"2021-104AH","CENTER_NAME":"EARTH","ELEMENT_SET_NO":"999","MEAN_MOTION":"15.73196255","ECCENTRICITY":"0.00016280","FILE":"3231910","BSTAR":"0.00016671000000","RCS_SIZE":"LARGE","LAUNCH_DATE":"2021-11-13","PERIAPSIS":"348.676","MEAN_MOTION_DOT":"0.00022836","CLASSIFICATION_TYPE":"U","APOAPSIS":"350.866"},{"REF_FRAME":"TEME","MEAN_MOTION_DDOT":"0.0000000000000","SEMIMAJOR_AXIS":"6728.017","INCLINATION":"53.2187","OBJECT_TYPE":"PAYLOAD","COUNTRY_CODE":"US","OBJECT_NAME":"STARLINK-3105","EPHEMERIS_TYPE":"0","GP_ID":"191040052","TLE_LINE2":"2 49440  53.2187  32.1280 0001935  37.8356 219.4850 15.73157107  3712","MEAN_ELEMENT_THEORY":"SGP4","PERIOD":"91.536","TIME_SYSTEM":"UTC","ECCENTRICITY":"0.00019350","MEAN_MOTION":"15.73157107","RCS_SIZE":"LARGE","LAUNCH_DATE":"2021-11-13","PERIAPSIS":"348.581","MEAN_MOTION_DOT":"0.00022945","CLASSIFICATION_TYPE":"U","APOAPSIS":"351.184","FILE":"3231910","BSTAR":"0.00016776000000","ARG_OF_PERICENTER":"37.8356","RA_OF_ASC_NODE":"32.1280","EPOCH":"2021-12-03T22:00:00.999936","TLE_LINE1":"1 49440U 21104AJ  21337.91667824  .00022945  00000-0  16776-3 0  9990","DECAY_DATE":null,"REV_AT_EPOCH":"371","CENTER_NAME":"EARTH","ELEMENT_SET_NO":"999","SITE":"AFETR","MEAN_ANOMALY":"219.4850","NORAD_CAT_ID":"49440","OBJECT_ID":"2021-104AJ"},{"DECAY_DATE":null,"REV_AT_EPOCH":"371","TLE_LINE1":"1 49441U 21104AK  21337.91667824  .00021159  00000-0  15515-3 0  9997","ARG_OF_PERICENTER":"39.4834","RA_OF_ASC_NODE":"32.1219","EPOCH":"2021-12-03T22:00:00.999936","OBJECT_ID":"2021-104AK","SITE":"AFETR","NORAD_CAT_ID":"49441","MEAN_ANOMALY":"222.4579","ELEMENT_SET_NO":"999","CENTER_NAME":"EARTH","MEAN_MOTION":"15.73146159","ECCENTRICITY":"0.00019160","FILE":"3231910","BSTAR":"0.00015515000000","CLASSIFICATION_TYPE":"U","APOAPSIS":"351.203","RCS_SIZE":"LARGE","LAUNCH_DATE":"2021-11-13","MEAN_MOTION_DOT":"0.00021159","PERIAPSIS":"348.625","TLE_LINE2":"2 49441  53.2193  32.1219 0001916  39.4834 222.4579 15.73146159  3717","GP_ID":"191039897","OBJECT_NAME":"STARLINK-3128","EPHEMERIS_TYPE":"0","COUNTRY_CODE":"US","PERIOD":"91.536","TIME_SYSTEM":"UTC","MEAN_ELEMENT_THEORY":"SGP4","MEAN_MOTION_DDOT":"0.0000000000000","REF_FRAME":"TEME","INCLINATION":"53.2193","OBJECT_TYPE":"PAYLOAD","SEMIMAJOR_AXIS":"6728.049"},{"OBJECT_ID":"2021-104AL","MEAN_ANOMALY":"327.4640","NORAD_CAT_ID":"49442","SITE":"AFETR","ELEMENT_SET_NO":"999","CENTER_NAME":"EARTH","REV_AT_EPOCH":"450","DECAY_DATE":null,"TLE_LINE1":"1 49442U 21104AL  21338.00002315  .00071147  00000-0  50795-3 0  9998","RA_OF_ASC_NODE":"31.7162","EPOCH":"2021-12-04T00:00:02.000160","ARG_OF_PERICENTER":"43.1087","FILE":"3231898","BSTAR":"0.00050795000000","CLASSIFICATION_TYPE":"U","APOAPSIS":"351.238","LAUNCH_DATE":"2021-11-13","MEAN_MOTION_DOT":"0.00071147","PERIAPSIS":"348.523","RCS_SIZE":"LARGE","MEAN_MOTION":"15.73157842","ECCENTRICITY":"0.00020180","PERIOD":"91.536","TIME_SYSTEM":"UTC","MEAN_ELEMENT_THEORY":"SGP4","TLE_LINE2":"2 49442  53.2191  31.7162 0002018  43.1087 327.4640 15.73157842  4508","GP_ID":"191016708","EPHEMERIS_TYPE":"0","OBJECT_NAME":"STARLINK-3098","COUNTRY_CODE":"US","OBJECT_TYPE":"PAYLOAD","INCLINATION":"53.2191","SEMIMAJOR_AXIS":"6728.015","MEAN_MOTION_DDOT":"0.0000000000000","REF_FRAME":"TEME"}];
